INTELSAT 906 (IS-906)   
1 27513U 02041A   26173.82856228  .00000013  00000+0  00000+0 0  9997
2 27513   5.8162  72.8521 0004338   3.6531 196.9257  1.00271326 87087
NIMIQ 2                 
1 27632U 02062A   26173.68239051 -.00000073  00000+0  00000+0 0  9992
2 27632   9.4594  56.8426 0005699  27.8704 322.6221  1.00272955 44233
USA 167                 
1 27691U 03008A   26173.59686764 -.00000002  00000+0  00000+0 0  9997
2 27691  10.9726  43.3630 0003949 316.8606   3.7285  1.00272665  6826
USA 169 (MILSTAR-2 4)   
1 27711U 03012A   26173.41829669 -.00000273  00000+0  00000+0 0  9999
2 27711  12.3577  29.8018 0100819   9.4279 174.1104  1.00272862 33005
ASIASAT 4               
1 27718U 03014A   26173.63265006 -.00000222  00000+0  00000+0 0  9995
2 27718   4.7174  75.6788 0002865  18.7256 191.7144  1.00271915 45351
HELLAS-SAT 2            
1 27811U 03020A   26173.03030823 -.00000087  00000+0  00000+0 0  9996
2 27811   7.3673  67.8290 0002743  31.2366 172.0338  1.00271870 42899
THURAYA-2               
1 27825U 03026A   26173.88267567  .00000122  00000+0  00000+0 0  9996
2 27825   8.8486  31.9505 0002813  14.5781 226.3028  1.00273628 84401
OPTUS C1                
1 27831U 03028B   26173.78308448 -.00000152  00000+0  00000+0 0  9992
2 27831   6.9044  69.3446 0005723  17.6298 261.6523  1.00272392 53119
USA 170                 
1 27875U 03040A   26173.82068881  .00000122  00000+0  00000+0 0  9999
2 27875  10.5125  47.8969 0001934  53.5632 129.1853  1.00270562 33052
GALAXY 13 (HORIZONS-1)  
1 27954U 03044A   26173.73447288  .00000135  00000+0  00000+0 0  9997
2 27954   1.4329  83.7926 0002138   1.6970 299.8325  1.00273511 46626
YAMAL 202               
1 28089U 03053A   26172.56555374 -.00000084  00000+0  00000+0 0  9997
2 28089   6.3538  70.8853 0003179   7.2717 198.7487  1.00270906 82749
UFO 11 (USA 174)        
1 28117U 03057A   26173.68827785 -.00000108  00000+0  00000+0 0  9992
2 28117   8.9458  33.7993 0002382  67.6727 132.7863  1.00271706 82508
USA 176 (DSP 22)        
1 28158U 04004A   26173.44966897 -.00000302  00000+0  00000+0 0  9998
2 28158  12.0698  26.0349 0001352 315.9852  41.1823  1.00275109 32986
ABS-4 (MOBISAT-1)       
1 28184U 04007A   26173.75664031  .00000038  00000+0  00000+0 0  9994
2 28184   6.0550  71.9397 0005025  18.5867 153.8227  1.00274930 52397
INTELSAT 10-02          
1 28358U 04022A   26173.38797669 -.00000009  00000+0  00000+0 0  9996
2 28358   0.0201 295.2216 0000172 192.5285 281.4846  1.00271869 80601
ANIK F2                 
1 28378U 04027A   26173.68239051 -.00000048  00000+0  00000+0 0  9995
2 28378   3.3022  79.3791 0004220  11.3020 314.7068  1.00272122 41316
AMC-15                  
1 28446U 04041A   26173.65253714 -.00000086  00000+0  00000+0 0  9998
2 28446   0.0162  14.2455 0002395  65.5382 320.9021  1.00271843 79351
NSS-10                  
1 28526U 05003A   26173.41630013 -.00000253  00000+0  00000+0 0  9997
2 28526   6.4632  70.3928 0002940  16.0188 296.5942  1.00271663 53207
INMARSAT 4-F1           
1 28628U 05009A   26173.77990677  .00000032  00000+0  00000+0 0  9994
2 28628   5.1759  42.7751 0002751  48.3194 278.7361  1.00272485 77721
DIRECTV 8               
1 28659U 05019A   26173.68239051  .00000004  00000+0  00000+0 0  9990
2 28659   0.0178  34.1033 0003106  62.7225 300.6414  1.00272458 77120
GALAXY 28 (G-28)        
1 28702U 05022A   26173.09142267 -.00000201  00000+0  00000+0 0  9990
2 28702   3.3105  78.8739 0002789  14.8274 182.4033  1.00270607 52020
THAICOM 4               
1 28786U 05028A   26173.88301101 -.00000359  00000+0  00000+0 0  9993
2 28786   0.2608  85.8430 0001865 355.2964 267.3013  1.00270598 52305
ANIK F1R                
1 28868U 05036A   26173.72313097 -.00000074  00000+0  00000+0 0  9997
2 28868   4.3276  76.5147 0004283   7.6746 339.7376  1.00271621 46506
SYRACUSE 3A             
1 28885U 05041B   26173.82510882  .00000130  00000+0  00000+0 0  9996
2 28885   4.6560  75.7688 0002852   8.6388 170.2808  1.00270360 75800
INMARSAT 4-F2           
1 28899U 05044A   26172.98880230 -.00000263  00000+0  00000+0 0  9995
2 28899   5.1017  43.6996 0003083  37.4039 328.5195  1.00271669 75578
METEOSAT-9 (MSG-2)      
1 28912U 05049B   26173.82493549  .00000121  00000+0  00000+0 0  9995
2 28912   9.3746  54.1148 0001933 351.8008 207.7360  1.00275427  7052
EUTELSAT 174A           
1 28924U 05052A   26173.77197448  .00000010  00000+0  00000+0 0  9992
2 28924   4.2345  76.4631 0006429  13.2695 273.0909  1.00273222 52386
ECHOSTAR 10             
1 28935U 06003A   26173.65149713 -.00000053  00000+0  00000+0 0  9998
2 28935   0.0186  13.7650 0001539  71.9856 309.4003  1.00271427 74510
SPAINSAT                
1 28945U 06007A   26173.33249633 -.00000215  00000+0  00000+0 0  9990
2 28945   0.5774  86.4605 0004957   1.8703 271.7163  1.00272242 74273
JCSAT-5A                
1 29045U 06010A   26173.84203561 -.00000325  00000+0  00000+0 0  9994
2 29045   1.1251  84.1736 0002105 357.0773 264.9414  1.00270539 73828
ASTRA 1KR               
1 29055U 06012A   26173.81964880  .00000122  00000+0  00000+0 0  9996
2 29055   0.4892  83.2338 0003576   3.9169 137.9102  1.00273547 45755
GALAXY 16 (G-16)        
1 29236U 06023A   26173.65375047 -.00000124  00000+0  00000+0 0  9995
2 29236   0.0408 156.7444 0002724 295.3004 315.1330  1.00271729 73022
