OBJECT_NAME,OBJECT_ID,EPOCH,MEAN_MOTION,ECCENTRICITY,INCLINATION,RA_OF_ASC_NODE,ARG_OF_PERICENTER,MEAN_ANOMALY,EPHEMERIS_TYPE,CLASSIFICATION_TYPE,NORAD_CAT_ID,ELEMENT_SET_NO,REV_AT_EPOCH,BSTAR,MEAN_MOTION_DOT,MEAN_MOTION_DDOT
INTELSAT 906 (IS-906),2002-041A,2026-06-22T19:53:07.780992,1.00271326,.00043385,5.8162,72.8521,3.6531,196.9257,0,U,27513,999,8708,0,.13E-6,0
NIMIQ 2,2002-062A,2026-06-22T16:22:38.540064,1.00272955,.00056999,9.4594,56.8426,27.8704,322.6221,0,U,27632,999,4423,0,-.73E-6,0
USA 167,2003-008A,2026-06-22T14:19:29.364096,1.00272665,.00039495,10.9726,43.3630,316.8606,3.7285,0,U,27691,999,682,0,-.2E-7,0
USA 169 (MILSTAR-2 4),2003-012A,2026-06-22T10:02:20.834016,1.00272862,.0100819,12.3577,29.8018,9.4279,174.1104,0,U,27711,999,3300,0,-.273E-5,0
ASIASAT 4,2003-014A,2026-06-22T15:11:00.965184,1.00271915,.0002865,4.7174,75.6788,18.7256,191.7144,0,U,27718,999,4535,0,-.222E-5,0
HELLAS-SAT 2,2003-020A,2026-06-22T00:43:38.631072,1.00271870,.00027433,7.3673,67.8290,31.2366,172.0338,0,U,27811,999,4289,0,-.87E-6,0
THURAYA-2,2003-026A,2026-06-22T21:11:03.177888,1.00273628,.0002813,8.8486,31.9505,14.5781,226.3028,0,U,27825,999,8440,0,.122E-5,0
OPTUS C1,2003-028B,2026-06-22T18:47:38.499072,1.00272392,.00057235,6.9044,69.3446,17.6298,261.6523,0,U,27831,999,5311,0,-.152E-5,0
USA 170,2003-040A,2026-06-22T19:41:47.513184,1.00270562,.0001934,10.5125,47.8969,53.5632,129.1853,0,U,27875,999,3305,0,.122E-5,0
GALAXY 13 (HORIZONS-1),2003-044A,2026-06-22T17:37:38.456832,1.00273511,.00021382,1.4329,83.7926,1.6970,299.8325,0,U,27954,999,4662,0,.135E-5,0
YAMAL 202,2003-053A,2026-06-21T13:34:23.843136,1.00270906,.00031796,6.3538,70.8853,7.2717,198.7487,0,U,28089,999,8274,0,-.84E-6,0
UFO 11 (USA 174),2003-057A,2026-06-22T16:31:07.206240,1.00271706,.00023827,8.9458,33.7993,67.6727,132.7863,0,U,28117,999,8250,0,-.108E-5,0
USA 176 (DSP 22),2004-004A,2026-06-22T10:47:31.399008,1.00275109,.00013523,12.0698,26.0349,315.9852,41.1823,0,U,28158,999,3298,0,-.302E-5,0
ABS-4 (MOBISAT-1),2004-007A,2026-06-22T18:09:33.722784,1.00274930,.00050257,6.0550,71.9397,18.5867,153.8227,0,U,28184,999,5239,0,.38E-6,0
INTELSAT 10-02,2004-022A,2026-06-22T09:18:41.186016,1.00271869,.00001723,0.0201,295.2216,192.5285,281.4846,0,U,28358,999,8060,0,-.9E-7,0
ANIK F2,2004-027A,2026-06-22T16:22:38.540064,1.00272122,.00042202,3.3022,79.3791,11.3020,314.7068,0,U,28378,999,4131,0,-.48E-6,0
AMC-15,2004-041A,2026-06-22T15:39:39.208896,1.00271843,.0002395,0.0162,14.2455,65.5382,320.9021,0,U,28446,999,7935,0,-.86E-6,0
NSS-10,2005-003A,2026-06-22T09:59:28.331232,1.00271663,.000294,6.4632,70.3928,16.0188,296.5942,0,U,28526,999,5320,0,-.253E-5,0
INMARSAT 4-F1,2005-009A,2026-06-22T18:43:03.944928,1.00272485,.00027514,5.1759,42.7751,48.3194,278.7361,0,U,28628,999,7772,0,.32E-6,0
DIRECTV 8,2005-019A,2026-06-22T16:22:38.540064,1.00272458,.00031065,0.0178,34.1033,62.7225,300.6414,0,U,28659,999,7712,0,.4E-7,0
GALAXY 28 (G-28),2005-022A,2026-06-22T02:11:38.918688,1.00270607,.00027895,3.3105,78.8739,14.8274,182.4033,0,U,28702,999,5202,0,-.201E-5,0
THAICOM 4,2005-028A,2026-06-22T21:11:32.151264,1.00270598,.00018655,0.2608,85.8430,355.2964,267.3013,0,U,28786,999,5230,0,-.359E-5,0
ANIK F1R,2005-036A,2026-06-22T17:21:18.515808,1.00271621,.00042837,4.3276,76.5147,7.6746,339.7376,0,U,28868,999,4650,0,-.74E-6,0
SYRACUSE 3A,2005-041B,2026-06-22T19:48:09.402048,1.00270360,.0002852,4.6560,75.7688,8.6388,170.2808,0,U,28885,999,7580,0,.13E-5,0
INMARSAT 4-F2,2005-044A,2026-06-21T23:43:52.518720,1.00271669,.00030835,5.1017,43.6996,37.4039,328.5195,0,U,28899,999,7557,0,-.263E-5,0
METEOSAT-9 (MSG-2),2005-049B,2026-06-22T19:47:54.426336,1.00275427,.00019334,9.3746,54.1148,351.8008,207.7360,0,U,28912,999,705,0,.121E-5,0
EUTELSAT 174A,2005-052A,2026-06-22T18:31:38.595072,1.00273222,.00064291,4.2345,76.4631,13.2695,273.0909,0,U,28924,999,5238,0,.1E-6,0
ECHOSTAR 10,2006-003A,2026-06-22T15:38:09.352032,1.00271427,.00015393,0.0186,13.7650,71.9856,309.4003,0,U,28935,999,7451,0,-.53E-6,0
SPAINSAT,2006-007A,2026-06-22T07:58:47.682912,1.00272242,.00049573,0.5774,86.4605,1.8703,271.7163,0,U,28945,999,7427,0,-.215E-5,0
JCSAT-5A,2006-010A,2026-06-22T20:12:31.876704,1.00270539,.00021058,1.1251,84.1736,357.0773,264.9414,0,U,29045,999,7382,0,-.325E-5,0
ASTRA 1KR,2006-012A,2026-06-22T19:40:17.656320,1.00273547,.00035767,0.4892,83.2338,3.9169,137.9102,0,U,29055,999,4575,0,.122E-5,0
GALAXY 16 (G-16),2006-023A,2026-06-22T15:41:24.040608,1.00271729,.0002724,0.0408,156.7444,295.3004,315.1330,0,U,29236,999,7302,0,-.124E-5,0
